[{"OBJECT_NAME":"YAM-7","OBJECT_ID":"2024-149AN","EPOCH":"2026-03-09T17:13:55.117920","MEAN_MOTION":15.30304554,"ECCENTRICITY":0.00019733,"INCLINATION":97.3828,"RA_OF_ASC_NODE":149.4631,"ARG_OF_PERICENTER":296.5121,"MEAN_ANOMALY":63.5918,"EPHEMERIS_TYPE":0,"CLASSIFICATION_TYPE":"U","NORAD_CAT_ID":60504,"ELEMENT_SET_NO":999,"REV_AT_EPOCH":8683,"BSTAR":0.00030984439,"MEAN_MOTION_DOT":9.009e-5,"MEAN_MOTION_DDOT":0},{"OBJECT_NAME":"STARLINK-32469","OBJECT_ID":"2024-196Q","EPOCH":"2026-03-09T09:20:49.942752","MEAN_MOTION":15.30192485,"ECCENTRICITY":0.0001054,"INCLINATION":53.1601,"RA_OF_ASC_NODE":102.5175,"ARG_OF_PERICENTER":81.5233,"MEAN_ANOMALY":278.5887,"EPHEMERIS_TYPE":0,"CLASSIFICATION_TYPE":"U","NORAD_CAT_ID":61721,"ELEMENT_SET_NO":999,"REV_AT_EPOCH":7711,"BSTAR":3.1790917e-5,"MEAN_MOTION_DOT":5.82e-6,"MEAN_MOTION_DDOT":0}]
