YAM-7                   
1 60504U 24149AN  26068.71799904  .00009009  00000+0  30984-3 0  9997
2 60504  97.3828 149.4631 0001973 296.5121  63.5918 15.30304554 86835
STARLINK-32469          
1 61721U 24196Q   26068.38946693  .00000582  00000+0  31791-4 0  9998
2 61721  53.1601 102.5175 0001054  81.5233 278.5887 15.30192485 77117
